NORAD_CAT_ID,OBJECT_NAME,OBJECT_TYPE,EPOCH,MEAN_MOTION,ECCENTRICITY,INCLINATION,RA_OF_ASC_NODE,ARG_OF_PERICENTER,MEAN_ANOMALY,BSTAR,MEAN_MOTION_DOT,MEAN_MOTION_DDOT,TLE_LINE0,TLE_LINE1,TLE_LINE2,SEMIMAJOR_AXIS,PERIOD,APOGEE,PERIGEE,DECAYED
55647.0,STARLINK-5510,PAYLOAD,2023-07-15 04:40:03,14.98339466,0.0002954,69.9999,106.2353,269.6173,90.4647,0.00011348,1.262e-05,0.0,0 STARLINK-5510,1 55647U 23021V   23196.19448344  .00001262  00000-0  11348-3 0  9994,2 55647  69.9999 106.2353 0002954 269.6173  90.4647 14.98339466 23428,6950.164,96.106,574.082,569.976,0.0
55647.0,STARLINK-5510,PAYLOAD,2023-07-16 04:42:05,14.983257,0.0003029,69.9996,103.7101,270.3831,89.6981,1.4393e-05,7.9e-07,0.0,0 STARLINK-5510,1 55647U 23021V   23197.19589546  .00000079  00000-0  14393-4 0  9994,2 55647  69.9996 103.7101 0003029 270.3831  89.6981 14.98325700 23575,6950.206,96.107,574.176,569.966,0.0
55647.0,STARLINK-5510,PAYLOAD,2023-07-16 23:55:41,14.98334278,0.0002954,69.9998,101.6903,268.9061,91.1759,-3.466e-05,-5.07e-06,0.0,0 STARLINK-5510,1 55647U 23021V   23197.99701147 -.00000507  00000-0 -34660-4 0  9992,2 55647  69.9998 101.6903 0002954 268.9061  91.1759 14.98334278 23692,6950.18,96.107,574.098,569.992,0.0
55647.0,STARLINK-5510,PAYLOAD,2023-07-17 23:57:42,14.98328454,0.000308,69.9994,99.1654,269.5163,90.5643,6.0114e-05,6.24e-06,0.0,0 STARLINK-5510,1 55647U 23021V   23198.99841170  .00000624  00000-0  60114-4 0  9995,2 55647  69.9994  99.1654 0003080 269.5163  90.5643 14.98328454 23844,6950.198,96.107,574.203,569.922,0.0
55647.0,STARLINK-5510,PAYLOAD,2023-07-19 03:11:59,14.98329397,0.0002944,69.9997,96.3042,264.4988,95.5836,-1.5077e-05,-2.73e-06,0.0,0 STARLINK-5510,1 55647U 23021V   23200.13333238 -.00000273  00000-0 -15077-4 0  9996,2 55647  69.9997  96.3042 0002944 264.4988  95.5836 14.98329397 24010,6950.195,96.107,574.106,570.014,0.0
55647.0,STARLINK-5510,PAYLOAD,2023-07-19 17:37:12,14.98312291,0.0002988,69.9998,94.7909,263.6907,96.3912,0.0002404,2.775e-05,0.0,0 STARLINK-5510,1 55647U 23021V   23200.73417650  .00002775  00000-0  24040-3 0  9999,2 55647  69.9998  94.7909 0002988 263.6907  96.3912 14.98312291 24104,6950.248,96.108,574.189,570.036,0.0
55647.0,STARLINK-5510,PAYLOAD,2023-07-20 19:15:21,14.98328357,0.0002947,69.9999,92.0968,262.5461,97.5364,4.1608e-05,4.03e-06,0.0,0 STARLINK-5510,1 55647U 23021V   23201.80233180  .00000403  00000-0  41608-4 0  9998,2 55647  69.9999  92.0968 0002947 262.5461  97.5364 14.98328357 24260,6950.198,96.107,574.111,570.015,0.0
55647.0,STARLINK-5510,PAYLOAD,2023-07-24 01:45:56,14.98327003,0.000306,69.9997,83.8485,268.7416,91.3393,-5.6422e-05,-7.66e-06,0.0,0 STARLINK-5510,1 55647U 23021V   23205.07357356 -.00000766  00000-0 -56422-4 0  9997,2 55647  69.9997  83.8485 0003060 268.7416  91.3393 14.98327003 25054,6950.202,96.107,574.194,569.94,0.0
55647.0,STARLINK-5510,PAYLOAD,2023-07-25 01:47:57,14.98330181,0.0002985,70.0006,81.3218,252.9498,107.1334,8.6775e-05,9.43e-06,0.0,0 STARLINK-5510,1 55647U 23021V   23206.07496590  .00000943  00000-0  86775-4 0  9991,2 55647  70.0006  81.3218 0002985 252.9498 107.1334 14.98330181 25204,6950.192,96.107,574.132,569.983,0.0
55647.0,STARLINK-5510,PAYLOAD,2023-07-26 01:49:58,14.98332385,0.0003077,69.9993,78.7967,268.5015,91.5792,3.3188e-06,-5.3e-07,0.0,0 STARLINK-5510,1 55647U 23021V   23207.07636866 -.00000053  00000-0  33188-5 0  9998,2 55647  69.9993  78.7967 0003077 268.5015  91.5792 14.98332385 25356,6950.186,96.107,574.189,569.912,0.0
55647.0,STARLINK-5510,PAYLOAD,2023-07-27 08:16:31,14.98328367,0.0003057,69.9997,75.5996,271.5297,88.5512,-1.3116e-05,-2.49e-06,0.0,0 STARLINK-5510,1 55647U 23021V   23208.34481058 -.00000249  00000-0 -13116-4 0  9996,2 55647  69.9997  75.5996 0003057 271.5297  88.5512 14.98328367 25240,6950.198,96.107,574.188,569.938,0.0
55647.0,STARLINK-5510,PAYLOAD,2023-07-27 21:05:37,14.98313247,0.0002744,70.0004,74.2527,272.3992,87.6853,-0.00014026,-1.765e-05,0.0,0 STARLINK-5510,1 55647U 23021V   23208.87890717 -.00001765  00000-0 -14026-3 0  9994,2 55647  70.0004  74.2527 0002744 272.3992  87.6853 14.98313247 25622,6950.245,96.108,574.017,570.203,0.0
55647.0,STARLINK-5510,PAYLOAD,2023-07-28 00:17:54,14.98309894,0.000293,69.9999,73.9162,271.4803,88.6021,-0.00019021,-2.361e-05,0.0,0 STARLINK-5510,1 55647U 23021V   23209.01243186 -.00002361  00000-0 -19021-3 0  9996,2 55647  69.9999  73.9162 0002930 271.4803  88.6021 14.98309894 25341,6950.255,96.108,574.156,570.084,0.0
55647.0,STARLINK-5510,PAYLOAD,2023-07-29 00:19:54,14.98324051,0.0002947,69.9995,71.3914,269.5411,90.541,-4.0187e-05,-5.72e-06,0.0,0 STARLINK-5510,1 55647U 23021V   23210.01382533 -.00000572  00000-0 -40187-4 0  9998,2 55647  69.9995  71.3914 0002947 269.5411  90.5410 14.98324051 25497,6950.211,96.107,574.125,570.028,0.0
55647.0,STARLINK-5510,PAYLOAD,2023-07-30 00:21:54,14.98331116,0.0003223,69.9988,68.8656,271.2567,88.8223,0.00022956,2.647e-05,0.0,0 STARLINK-5510,1 55647U 23021V   23211.01521682  .00002647  00000-0  22956-3 0  9995,2 55647  69.9988  68.8656 0003223 271.2567  88.8223 14.98331116 25642,6950.189,96.107,574.294,569.814,0.0
55647.0,STARLINK-5510,PAYLOAD,2023-07-31 00:23:54,14.98347188,0.0003186,69.9991,66.3404,270.8255,89.2539,0.0001831,2.093e-05,0.0,0 STARLINK-5510,1 55647U 23021V   23212.01660312  .00002093  00000-0  18310-3 0  9994,2 55647  69.9991  66.3404 0003186 270.8255  89.2539 14.98347188 25794,6950.14,96.106,574.219,569.79,0.0
55647.0,STARLINK-5510,PAYLOAD,2023-07-31 18:01:24,14.98335899,0.0003013,69.9996,64.4889,270.5511,89.5303,-7.0187e-05,-9.3e-06,0.0,0 STARLINK-5510,1 55647U 23021V   23212.75097244 -.00000930  00000-0 -70187-4 0  9994,2 55647  69.9996  64.4889 0003013 270.5511  89.5303 14.98335899 25907,6950.175,96.107,574.134,569.946,0.0
55647.0,STARLINK-5510,PAYLOAD,2023-08-01 18:03:24,14.9833728,0.0003055,69.9996,61.9641,270.3022,89.7787,-0.00012741,-1.613e-05,0.0,0 STARLINK-5510,1 55647U 23021V   23213.75236767 -.00001613  00000-0 -12741-3 0  9990,2 55647  69.9996  61.9641 0003055 270.3022  89.7787 14.98337280 26057,6950.17,96.107,574.159,569.912,0.0
55647.0,STARLINK-5510,PAYLOAD,2023-08-02 18:05:25,14.98331197,0.0003073,69.9994,59.4392,266.1263,93.9545,1.794e-05,1.21e-06,0.0,0 STARLINK-5510,1 55647U 23021V   23214.75376368  .00000121  00000-0  17940-4 0  9991,2 55647  69.9994  59.4392 0003073 266.1263  93.9545 14.98331197 26207,6950.189,96.107,574.19,569.918,0.0
55647.0,STARLINK-5510,PAYLOAD,2023-08-03 18:07:26,14.9832737,0.0003032,69.9995,56.9143,266.2997,93.7816,-1.0154e-05,-2.14e-06,0.0,0 STARLINK-5510,1 55647U 23021V   23215.75516649 -.00000214  00000-0 -10154-4 0  9995,2 55647  69.9995  56.9143 0003032 266.2997  93.7816 14.98327370 26357,6950.201,96.107,574.173,569.959,0.0
55647.0,STARLINK-5510,PAYLOAD,2023-08-04 18:09:27,14.98328061,0.0003059,69.9996,54.3897,266.4756,93.6053,-2.8108e-05,-4.28e-06,0.0,0 STARLINK-5510,1 55647U 23021V   23216.75656735 -.00000428  00000-0 -28108-4 0  9992,2 55647  69.9996  54.3897 0003059 266.4756  93.6053 14.98328061 26507,6950.199,96.107,574.19,569.938,0.0
55647.0,STARLINK-5510,PAYLOAD,2023-08-05 18:11:27,14.98333046,0.0003137,69.9996,51.8647,267.4803,92.5997,8.172e-05,8.82e-06,0.0,0 STARLINK-5510,1 55647U 23021V   23217.75796079  .00000882  00000-0  81720-4 0  9990,2 55647  69.9996  51.8647 0003137 267.4803  92.5997 14.98333046 26653,6950.183,96.107,574.229,569.868,0.0
55647.0,STARLINK-5510,PAYLOAD,2023-08-06 19:49:37,14.98319103,0.0002739,70.0004,49.1714,257.9061,102.1791,-3.3056e-05,-4.87e-06,0.0,0 STARLINK-5510,1 55647U 23021V   23218.82613398 -.00000487  00000-0 -33056-4 0  9993,2 55647  70.0004  49.1714 0002739 257.9061 102.1791 14.98319103 26814,6950.227,96.108,573.995,570.188,0.0
55647.0,STARLINK-5510,PAYLOAD,2023-08-07 18:15:30,14.98331873,0.000318,69.9997,46.814,267.3708,92.7087,-1.769e-05,-3.04e-06,0.0,0 STARLINK-5510,1 55647U 23021V   23219.76076785 -.00000304  00000-0 -17690-4 0  9994,2 55647  69.9997  46.8140 0003180 267.3708  92.7087 14.98331873 26958,6950.187,96.107,574.262,569.842,0.0
55647.0,STARLINK-5510,PAYLOAD,2023-08-08 18:17:30,14.98331679,0.0003251,69.9996,44.2887,265.7835,94.2952,0.00015384,1.743e-05,0.0,0 STARLINK-5510,1 55647U 23021V   23220.76216239  .00001743  00000-0  15384-3 0  9999,2 55647  69.9996  44.2887 0003251 265.7835  94.2952 14.98331679 27109,6950.188,96.107,574.312,569.793,0.0
55647.0,STARLINK-5510,PAYLOAD,2023-08-09 08:42:43,14.98327518,0.0003059,69.9997,42.7735,268.5198,91.5611,4.4414e-05,4.37e-06,0.0,0 STARLINK-5510,1 55647U 23021V   23221.36300759  .00000437  00000-0  44414-4 0  9993,2 55647  69.9997  42.7735 0003059 268.5198  91.5611 14.98327518 27192,6950.201,96.107,574.192,569.939,0.0
55647.0,STARLINK-5510,PAYLOAD,2023-08-09 18:19:32,14.98300518,0.0003012,69.9998,41.7637,268.0827,91.9987,0.00049159,5.773e-05,0.0,0 STARLINK-5510,1 55647U 23021V   23221.76357273  .00005773  00000-0  49159-3 0  9998,2 55647  69.9998  41.7637 0003012 268.0827  91.9987 14.98300518 27254,6950.284,96.109,574.242,570.056,0.0
55647.0,STARLINK-5510,PAYLOAD,2023-08-10 10:20:52,14.98332776,0.0003211,69.9999,40.0803,269.68,90.3991,-1.9869e-06,-1.17e-06,0.0,0 STARLINK-5510,1 55647U 23021V   23222.43116371 -.00000117  00000-0 -19869-5 0  9991,2 55647  69.9999  40.0803 0003211 269.6800  90.3991 14.98332776 27351,6950.184,96.107,574.281,569.818,0.0
55647.0,STARLINK-5510,PAYLOAD,2023-08-11 18:23:33,14.98329605,0.0003232,70.0001,36.7136,269.0377,91.0412,2.9749e-05,2.62e-06,0.0,0 STARLINK-5510,1 55647U 23021V   23223.76636119  .00000262  00000-0  29749-4 0  9991,2 55647  70.0001  36.7136 0003232 269.0377  91.0412 14.98329605 27550,6950.194,96.107,574.305,569.813,0.0
55647.0,STARLINK-5510,PAYLOAD,2023-08-12 18:25:34,14.98333906,0.0003187,70.0003,34.1889,268.6559,91.4235,-4.8344e-06,-1.51e-06,0.0,0 STARLINK-5510,1 55647U 23021V   23224.76775819 -.00000151  00000-0 -48344-5 0  9995,2 55647  70.0003  34.1889 0003187 268.6559  91.4235 14.98333906 27708,6950.181,96.107,574.261,569.831,0.0
